[
    {
        "CCSDS_OMM_VERS": "3.0",
        "COMMENT": "GENERATED VIA SPACE-TRACK.ORG API",
        "CREATION_DATE": "2025-05-03T23:06:31",
        "ORIGINATOR": "18 SPCS",
        "OBJECT_NAME": "COSMOS 2492 (GLONASS)",
        "OBJECT_ID": "2014-012A",
        "CENTER_NAME": "EARTH",
        "REF_FRAME": "TEME",
        "TIME_SYSTEM": "UTC",
        "MEAN_ELEMENT_THEORY": "SGP4",
        "EPOCH": "2025-05-03T04:55:42.069792",
        "MEAN_MOTION": "2.13103208",
        "ECCENTRICITY": "0.00119460",
        "INCLINATION": "65.5272",
        "RA_OF_ASC_NODE": "327.8375",
        "ARG_OF_PERICENTER": "330.5183",
        "MEAN_ANOMALY": "29.4425",
        "EPHEMERIS_TYPE": "0",
        "CLASSIFICATION_TYPE": "U",
        "NORAD_CAT_ID": "39620",
        "ELEMENT_SET_NO": "999",
        "REV_AT_EPOCH": "8650",
        "BSTAR": "0.00000000000000",
        "MEAN_MOTION_DOT": "-0.00000049",
        "MEAN_MOTION_DDOT": "0.0000000000000",
        "SEMIMAJOR_AXIS": "25507.928",
        "PERIOD": "675.729",
        "APOAPSIS": "19160.265",
        "PERIAPSIS": "19099.321",
        "OBJECT_TYPE": "PAYLOAD",
        "RCS_SIZE": "LARGE",
        "COUNTRY_CODE": "CIS",
        "LAUNCH_DATE": "2014-03-23",
        "SITE": "PKMTR",
        "DECAY_DATE": null,
        "FILE": "4718256",
        "GP_ID": "286782232",
        "TLE_LINE0": "0 COSMOS 2492 (GLONASS)",
        "TLE_LINE1": "1 39620U 14012A   25123.20534803 -.00000049  00000-0  00000+0 0  9999",
        "TLE_LINE2": "2 39620  65.5272 327.8375 0011946 330.5183  29.4425  2.13103208 86503"
    }
]